CCSDS_OMM_VERS = 2.0
CREATION_DATE  = 
ORIGINATOR     = 

OBJECT_NAME    = YOTSUBA-KULOVER
OBJECT_ID      = 1998-067XN
CENTER_NAME    = EARTH
REF_FRAME      = TEME
TIME_SYSTEM    = UTC
MEAN_ELEMENT_THEORY = SGP/SGP4

EPOCH          = 2026-03-07T05:44:02.579136
MEAN_MOTION    = 15.79338346
ECCENTRICITY   = .0005818
INCLINATION    = 51.6206
RA_OF_ASC_NODE = 69.9935
ARG_OF_PERICENTER = 51.4976
MEAN_ANOMALY   = 308.6546

EPHEMERIS_TYPE = 0
CLASSIFICATION_TYPE = U
NORAD_CAT_ID   = 65941
ELEMENT_SET_NO = 999
REV_AT_EPOCH   = 2311
BSTAR          = .13994E-2
MEAN_MOTION_DOT = .265557E-2
MEAN_MOTION_DDOT = 0

CCSDS_OMM_VERS = 2.0
CREATION_DATE  = 
ORIGINATOR     = 

OBJECT_NAME    = E-KAGAKU-1
OBJECT_ID      = 1998-067XQ
CENTER_NAME    = EARTH
REF_FRAME      = TEME
TIME_SYSTEM    = UTC
MEAN_ELEMENT_THEORY = SGP/SGP4

EPOCH          = 2026-03-07T05:49:42.716928
MEAN_MOTION    = 15.79025716
ECCENTRICITY   = .0006124
INCLINATION    = 51.6230
RA_OF_ASC_NODE = 70.0378
ARG_OF_PERICENTER = 57.4847
MEAN_ANOMALY   = 302.6745

EPHEMERIS_TYPE = 0
CLASSIFICATION_TYPE = U
NORAD_CAT_ID   = 65943
ELEMENT_SET_NO = 999
REV_AT_EPOCH   = 2311
BSTAR          = .13785E-2
MEAN_MOTION_DOT = .257698E-2
MEAN_MOTION_DDOT = 0

CCSDS_OMM_VERS = 2.0
CREATION_DATE  = 
ORIGINATOR     = 

OBJECT_NAME    = HRC MONOBLOCK CAMERA
OBJECT_ID      = 1998-067XR
CENTER_NAME    = EARTH
REF_FRAME      = TEME
TIME_SYSTEM    = UTC
MEAN_ELEMENT_THEORY = SGP/SGP4

EPOCH          = 2026-03-07T09:32:01.651776
MEAN_MOTION    = 15.61903299
ECCENTRICITY   = .00035831
INCLINATION    = 51.6271
RA_OF_ASC_NODE = 77.1000
ARG_OF_PERICENTER = 82.3141
MEAN_ANOMALY   = 277.8259

EPHEMERIS_TYPE = 0
CLASSIFICATION_TYPE = U
NORAD_CAT_ID   = 66052
ELEMENT_SET_NO = 999
REV_AT_EPOCH   = 2203
BSTAR          = .78072129E-3
MEAN_MOTION_DOT = .69329E-3
MEAN_MOTION_DDOT = 0

CCSDS_OMM_VERS = 2.0
CREATION_DATE  = 
ORIGINATOR     = 

OBJECT_NAME    = HTV-X1
OBJECT_ID      = 2025-241A
CENTER_NAME    = EARTH
REF_FRAME      = TEME
TIME_SYSTEM    = UTC
MEAN_ELEMENT_THEORY = SGP/SGP4

EPOCH          = 2026-03-07T12:18:20.403360
MEAN_MOTION    = 15.48507964
ECCENTRICITY   = .00081324
INCLINATION    = 51.6318
RA_OF_ASC_NODE = 83.1189
ARG_OF_PERICENTER = 167.0679
MEAN_ANOMALY   = 193.0520

EPHEMERIS_TYPE = 0
CLASSIFICATION_TYPE = U
NORAD_CAT_ID   = 66174
ELEMENT_SET_NO = 999
REV_AT_EPOCH   = 55447
BSTAR          = .27601504E-3
MEAN_MOTION_DOT = .14539E-3
MEAN_MOTION_DDOT = 0

CCSDS_OMM_VERS = 2.0
CREATION_DATE  = 
ORIGINATOR     = 

OBJECT_NAME    = SZ-21 MODULE
OBJECT_ID      = 2025-246C
CENTER_NAME    = EARTH
REF_FRAME      = TEME
TIME_SYSTEM    = UTC
MEAN_ELEMENT_THEORY = SGP/SGP4

EPOCH          = 2026-03-07T11:06:32.685984
MEAN_MOTION    = 15.68341086
ECCENTRICITY   = .00014291
INCLINATION    = 41.4737
RA_OF_ASC_NODE = 217.0662
ARG_OF_PERICENTER = 294.3949
MEAN_ANOMALY   = 65.6744

EPHEMERIS_TYPE = 0
CLASSIFICATION_TYPE = U
NORAD_CAT_ID   = 66515
ELEMENT_SET_NO = 999
REV_AT_EPOCH   = 1772
BSTAR          = .43322838E-3
MEAN_MOTION_DOT = .50102E-3
MEAN_MOTION_DDOT = 0

CCSDS_OMM_VERS = 2.0
CREATION_DATE  = 
ORIGINATOR     = 

OBJECT_NAME    = SHENZHOU-22
OBJECT_ID      = 2025-272A
CENTER_NAME    = EARTH
REF_FRAME      = TEME
TIME_SYSTEM    = UTC
MEAN_ELEMENT_THEORY = SGP/SGP4

EPOCH          = 2026-03-07T14:29:25.066176
MEAN_MOTION    = 15.60534588
ECCENTRICITY   = .00069595
INCLINATION    = 41.4662
RA_OF_ASC_NODE = 220.8523
ARG_OF_PERICENTER = 260.1334
MEAN_ANOMALY   = 99.8719

EPHEMERIS_TYPE = 0
CLASSIFICATION_TYPE = U
NORAD_CAT_ID   = 66645
ELEMENT_SET_NO = 999
REV_AT_EPOCH   = 26752
BSTAR          = .30831615E-3
MEAN_MOTION_DOT = .25948E-3
MEAN_MOTION_DDOT = 0

CCSDS_OMM_VERS = 2.0
CREATION_DATE  = 
ORIGINATOR     = 

OBJECT_NAME    = SOYUZ-MS 28
OBJECT_ID      = 2025-275A
CENTER_NAME    = EARTH
REF_FRAME      = TEME
TIME_SYSTEM    = UTC
MEAN_ELEMENT_THEORY = SGP/SGP4

EPOCH          = 2026-03-07T12:18:20.403360
MEAN_MOTION    = 15.48507964
ECCENTRICITY   = .00081324
INCLINATION    = 51.6318
RA_OF_ASC_NODE = 83.1189
ARG_OF_PERICENTER = 167.0679
MEAN_ANOMALY   = 193.0520

EPHEMERIS_TYPE = 0
CLASSIFICATION_TYPE = U
NORAD_CAT_ID   = 66664
ELEMENT_SET_NO = 999
REV_AT_EPOCH   = 55452
BSTAR          = .27601504E-3
MEAN_MOTION_DOT = .14539E-3
MEAN_MOTION_DDOT = 0

CCSDS_OMM_VERS = 2.0
CREATION_DATE  = 
ORIGINATOR     = 

OBJECT_NAME    = DUPLEX
OBJECT_ID      = 1998-067XS
CENTER_NAME    = EARTH
REF_FRAME      = TEME
TIME_SYSTEM    = UTC
MEAN_ELEMENT_THEORY = SGP/SGP4

EPOCH          = 2026-03-07T06:34:54.012864
MEAN_MOTION    = 15.56027322
ECCENTRICITY   = .0002224
INCLINATION    = 51.6285
RA_OF_ASC_NODE = 81.5298
ARG_OF_PERICENTER = 101.9633
MEAN_ANOMALY   = 258.1608

EPHEMERIS_TYPE = 0
CLASSIFICATION_TYPE = U
NORAD_CAT_ID   = 66906
ELEMENT_SET_NO = 999
REV_AT_EPOCH   = 1475
BSTAR          = .56716E-3
MEAN_MOTION_DOT = .39972E-3
MEAN_MOTION_DDOT = 0

CCSDS_OMM_VERS = 2.0
CREATION_DATE  = 
ORIGINATOR     = 

OBJECT_NAME    = ISS OBJECT XT
OBJECT_ID      = 1998-067XT
CENTER_NAME    = EARTH
REF_FRAME      = TEME
TIME_SYSTEM    = UTC
MEAN_ELEMENT_THEORY = SGP/SGP4

EPOCH          = 2026-03-07T10:00:34.337376
MEAN_MOTION    = 15.68423465
ECCENTRICITY   = .0004673
INCLINATION    = 51.6248
RA_OF_ASC_NODE = 77.2205
ARG_OF_PERICENTER = 64.6105
MEAN_ANOMALY   = 295.5375

EPHEMERIS_TYPE = 0
CLASSIFICATION_TYPE = U
NORAD_CAT_ID   = 66907
ELEMENT_SET_NO = 999
REV_AT_EPOCH   = 1482
BSTAR          = .16435274E-2
MEAN_MOTION_DOT = .193086E-2
MEAN_MOTION_DDOT = 0

CCSDS_OMM_VERS = 2.0
CREATION_DATE  = 
ORIGINATOR     = 

OBJECT_NAME    = ISS OBJECT XU
OBJECT_ID      = 1998-067XU
CENTER_NAME    = EARTH
REF_FRAME      = TEME
TIME_SYSTEM    = UTC
MEAN_ELEMENT_THEORY = SGP/SGP4

EPOCH          = 2026-03-07T13:01:41.906496
MEAN_MOTION    = 15.68582030
ECCENTRICITY   = .00048972
INCLINATION    = 51.6244
RA_OF_ASC_NODE = 76.5569
ARG_OF_PERICENTER = 67.6315
MEAN_ANOMALY   = 292.5200

EPHEMERIS_TYPE = 0
CLASSIFICATION_TYPE = U
NORAD_CAT_ID   = 66908
ELEMENT_SET_NO = 999
REV_AT_EPOCH   = 1484
BSTAR          = .15855282E-2
MEAN_MOTION_DOT = .187348E-2
MEAN_MOTION_DDOT = 0

CCSDS_OMM_VERS = 2.0
CREATION_DATE  = 
ORIGINATOR     = 

OBJECT_NAME    = SILVERSAT
OBJECT_ID      = 1998-067XV
CENTER_NAME    = EARTH
REF_FRAME      = TEME
TIME_SYSTEM    = UTC
MEAN_ELEMENT_THEORY = SGP/SGP4

EPOCH          = 2026-03-07T07:02:35.366496
MEAN_MOTION    = 15.71158496
ECCENTRICITY   = .0005453
INCLINATION    = 51.6247
RA_OF_ASC_NODE = 77.1411
ARG_OF_PERICENTER = 60.9415
MEAN_ANOMALY   = 299.2128

EPHEMERIS_TYPE = 0
CLASSIFICATION_TYPE = U
NORAD_CAT_ID   = 66909
ELEMENT_SET_NO = 999
REV_AT_EPOCH   = 1481
BSTAR          = .19116E-2
MEAN_MOTION_DOT = .253597E-2
MEAN_MOTION_DDOT = 0

CCSDS_OMM_VERS = 2.0
CREATION_DATE  = 
ORIGINATOR     = 

OBJECT_NAME    = ISS OBJECT XW
OBJECT_ID      = 1998-067XW
CENTER_NAME    = EARTH
REF_FRAME      = TEME
TIME_SYSTEM    = UTC
MEAN_ELEMENT_THEORY = SGP/SGP4

EPOCH          = 2026-03-07T06:48:18.690624
MEAN_MOTION    = 15.67806072
ECCENTRICITY   = .0005017
INCLINATION    = 51.6239
RA_OF_ASC_NODE = 77.8210
ARG_OF_PERICENTER = 72.1474
MEAN_ANOMALY   = 288.0069

EPHEMERIS_TYPE = 0
CLASSIFICATION_TYPE = U
NORAD_CAT_ID   = 66910
ELEMENT_SET_NO = 999
REV_AT_EPOCH   = 1480
BSTAR          = .15885E-2
MEAN_MOTION_DOT = .181703E-2
MEAN_MOTION_DDOT = 0

